DRAGONFLY               
1 65729U 98067XH  26016.21636597  .00362083  59771-4  11760-2 0  9995
2 65729  51.6201 317.1747 0007947 121.1972 238.9814 15.90167081 18615
1998-067XK              
1 65731U 98067XK  26016.24101685  .00117081  00000+0  79470-3 0  9991
2 65731  51.6285 321.1647 0004771  90.1861 269.9685 15.74078898 18561
RSP-03                  
1 65732U 98067XL  26016.08658944  .00187469  00000+0  94425-3 0  9993
2 65732  51.6250 320.1030 0005848 100.3486 259.8175 15.80551154 18573
GHS-01                  
1 65733U 98067XM  26016.52960129  .01071987  64681-3  14284-2 0  9995
2 65733  51.6204 313.2448 0007809 146.0579 214.0934 16.06065606 18700
YOTSUBA-KULOVER         
1 65941U 98067XN  26016.57716491  .00077571  00000+0  76976-3 0  9994
2 65941  51.6291 324.1741 0004154 112.5120 247.6316 15.65078214 15306
BOTAN                   
1 65942U 98067XP  26016.08879022  .00126501  00000+0  93501-3 0  9992
2 65942  51.6266 324.6496 0004859 111.6038 248.5479 15.72046667 15250
E-KAGAKU-1              
1 65943U 98067XQ  26016.57709136  .00075870  00000+0  75384-3 0  9996
2 65943  51.6301 324.1805 0002728 115.3741 244.7537 15.65060511 15300
HRC MONOBLOCK CAMERA    
1 66052U 98067XR  26016.34505276  .00031624  00000+0  43890-3 0  9998
2 66052  51.6308 328.6251 0001102   9.3617 350.7395 15.56741442 14221
HTV-X1                  
1 66174U 25241A   26016.36962088  .00009695  00000+0  18173-3 0  9996
2 66174  51.6334 331.0355 0007783  24.7534 335.3826 15.49326051   510
SZ-21 MODULE            
1 66515U 25246C   26016.54281325  .00025874  00000+0  26294-3 0  9998
2 66515  41.4742 163.4092 0002309 185.0675 175.0142 15.64574563  9890
SHENZHOU-22             
1 66645U 25272A   26016.60726816  .00015077  00000+0  18058-3 0  9990
2 66645  41.4653 164.7931 0011266 297.5042  62.4652 15.60562549267641
SOYUZ-MS 28             
1 66664U 25275A   26016.36962088  .00009695  00000+0  18173-3 0  9997
2 66664  51.6334 331.0355 0007783  24.7534 335.3826 15.49326051  1289
